[{"featurecla":"Admin-0 country","scalerank":1,"labelrank":3,"sovereignt":"Cameroon","sov_a3":"CMR","adm0_dif":0,"level":2,"type":"Sovereign country","tlc":"1","admin":"Cameroon","adm0_a3":"CMR","geou_dif":0,"geounit":"Cameroon","gu_a3":"CMR","su_dif":0,"subunit":"Cameroon","su_a3":"CMR","brk_diff":0,"name":"Cameroon","name_long":"Cameroon","brk_a3":"CMR","brk_name":"Cameroon","brk_group":null,"abbrev":"Cam.","postal":"CM","formal_en":"Republic of Cameroon","formal_fr":null,"name_ciawf":"Cameroon","note_adm0":null,"note_brk":null,"name_sort":"Cameroon","name_alt":null,"mapcolor7":1,"mapcolor8":4,"mapcolor9":1,"mapcolor13":3,"pop_est":25876380,"pop_rank":15,"pop_year":2019,"gdp_md":39007,"gdp_year":2019,"economy":"6. Developing region","income_grp":"4. Lower middle income","fips_10":"CM","iso_a2":"CM","iso_a2_eh":"CM","iso_a3":"CMR","iso_a3_eh":"CMR","iso_n3":"120","iso_n3_eh":"120","un_a3":"120","wb_a2":"CM","wb_a3":"CMR","woe_id":23424785,"woe_id_eh":23424785,"woe_note":"Exact WOE match as country","adm0_iso":"CMR","adm0_diff":null,"adm0_tlc":"CMR","adm0_a3_us":"CMR","adm0_a3_fr":"CMR","adm0_a3_ru":"CMR","adm0_a3_es":"CMR","adm0_a3_cn":"CMR","adm0_a3_tw":"CMR","adm0_a3_in":"CMR","adm0_a3_np":"CMR","adm0_a3_pk":"CMR","adm0_a3_de":"CMR","adm0_a3_gb":"CMR","adm0_a3_br":"CMR","adm0_a3_il":"CMR","adm0_a3_ps":"CMR","adm0_a3_sa":"CMR","adm0_a3_eg":"CMR","adm0_a3_ma":"CMR","adm0_a3_pt":"CMR","adm0_a3_ar":"CMR","adm0_a3_jp":"CMR","adm0_a3_ko":"CMR","adm0_a3_vn":"CMR","adm0_a3_tr":"CMR","adm0_a3_id":"CMR","adm0_a3_pl":"CMR","adm0_a3_gr":"CMR","adm0_a3_it":"CMR","adm0_a3_nl":"CMR","adm0_a3_se":"CMR","adm0_a3_bd":"CMR","adm0_a3_ua":"CMR","adm0_a3_un":-99,"adm0_a3_wb":-99,"continent":"Africa","region_un":"Africa","subregion":"Middle Africa","region_wb":"Sub-Saharan Africa","name_len":8,"long_len":8,"abbrev_len":4,"tiny":-99,"homepart":1,"min_zoom":0,"min_label":3,"max_label":8,"label_x":12.473488,"label_y":4.585041,"ne_id":1159320509,"wikidataid":"Q1009","name_ar":"الكاميرون","name_bn":"ক্যামেরুন","name_de":"Kamerun","name_en":"Cameroon","name_es":"Camerún","name_fa":"کامرون","name_fr":"Cameroun","name_el":"Καμερούν","name_he":"קמרון","name_hi":"कैमरुन","name_hu":"Kamerun","name_id":"Kamerun","name_it":"Camerun","name_ja":"カメルーン","name_ko":"카메룬","name_nl":"Kameroen","name_pl":"Kamerun","name_pt":"Camarões","name_ru":"Камерун","name_sv":"Kamerun","name_tr":"Kamerun","name_uk":"Камерун","name_ur":"کیمرون","name_vi":"Cameroon","name_zh":"喀麦隆","name_zht":"喀麥隆","fclass_iso":"Admin-0 country","tlc_diff":null,"fclass_tlc":"Admin-0 country","fclass_us":null,"fclass_fr":null,"fclass_ru":null,"fclass_es":null,"fclass_cn":null,"fclass_tw":null,"fclass_in":null,"fclass_np":null,"fclass_pk":null,"fclass_de":null,"fclass_gb":null,"fclass_br":null,"fclass_il":null,"fclass_ps":null,"fclass_sa":null,"fclass_eg":null,"fclass_ma":null,"fclass_pt":null,"fclass_ar":null,"fclass_jp":null,"fclass_ko":null,"fclass_vn":null,"fclass_tr":null,"fclass_id":null,"fclass_pl":null,"fclass_gr":null,"fclass_it":null,"fclass_nl":null,"fclass_se":null,"fclass_bd":null,"fclass_ua":null,"filename":"CMR.geojson"},{"featurecla":"Admin-0 country","scalerank":1,"labelrank":3,"sovereignt":"Chad","sov_a3":"TCD","adm0_dif":0,"level":2,"type":"Sovereign country","tlc":"1","admin":"Chad","adm0_a3":"TCD","geou_dif":0,"geounit":"Chad","gu_a3":"TCD","su_dif":0,"subunit":"Chad","su_a3":"TCD","brk_diff":0,"name":"Chad","name_long":"Chad","brk_a3":"TCD","brk_name":"Chad","brk_group":null,"abbrev":"Chad","postal":"TD","formal_en":"Republic of Chad","formal_fr":null,"name_ciawf":"Chad","note_adm0":null,"note_brk":null,"name_sort":"Chad","name_alt":null,"mapcolor7":6,"mapcolor8":1,"mapcolor9":8,"mapcolor13":6,"pop_est":15946876,"pop_rank":14,"pop_year":2019,"gdp_md":11314,"gdp_year":2019,"economy":"7. Least developed region","income_grp":"5. Low income","fips_10":"CD","iso_a2":"TD","iso_a2_eh":"TD","iso_a3":"TCD","iso_a3_eh":"TCD","iso_n3":"148","iso_n3_eh":"148","un_a3":"148","wb_a2":"TD","wb_a3":"TCD","woe_id":23424777,"woe_id_eh":23424777,"woe_note":"Exact WOE match as country","adm0_iso":"TCD","adm0_diff":null,"adm0_tlc":"TCD","adm0_a3_us":"TCD","adm0_a3_fr":"TCD","adm0_a3_ru":"TCD","adm0_a3_es":"TCD","adm0_a3_cn":"TCD","adm0_a3_tw":"TCD","adm0_a3_in":"TCD","adm0_a3_np":"TCD","adm0_a3_pk":"TCD","adm0_a3_de":"TCD","adm0_a3_gb":"TCD","adm0_a3_br":"TCD","adm0_a3_il":"TCD","adm0_a3_ps":"TCD","adm0_a3_sa":"TCD","adm0_a3_eg":"TCD","adm0_a3_ma":"TCD","adm0_a3_pt":"TCD","adm0_a3_ar":"TCD","adm0_a3_jp":"TCD","adm0_a3_ko":"TCD","adm0_a3_vn":"TCD","adm0_a3_tr":"TCD","adm0_a3_id":"TCD","adm0_a3_pl":"TCD","adm0_a3_gr":"TCD","adm0_a3_it":"TCD","adm0_a3_nl":"TCD","adm0_a3_se":"TCD","adm0_a3_bd":"TCD","adm0_a3_ua":"TCD","adm0_a3_un":-99,"adm0_a3_wb":-99,"continent":"Africa","region_un":"Africa","subregion":"Middle Africa","region_wb":"Sub-Saharan Africa","name_len":4,"long_len":4,"abbrev_len":4,"tiny":-99,"homepart":1,"min_zoom":0,"min_label":3,"max_label":8,"label_x":18.645041,"label_y":15.142959,"ne_id":1159321301,"wikidataid":"Q657","name_ar":"تشاد","name_bn":"চাদ","name_de":"Tschad","name_en":"Chad","name_es":"Chad","name_fa":"چاد","name_fr":"Tchad","name_el":"Τσαντ","name_he":"צ'אד","name_hi":"चाड","name_hu":"Csád","name_id":"Chad","name_it":"Ciad","name_ja":"チャド","name_ko":"차드","name_nl":"Tsjaad","name_pl":"Czad","name_pt":"Chade","name_ru":"Чад","name_sv":"Tchad","name_tr":"Çad","name_uk":"Чад","name_ur":"چاڈ","name_vi":"Tchad","name_zh":"乍得","name_zht":"查德","fclass_iso":"Admin-0 country","tlc_diff":null,"fclass_tlc":"Admin-0 country","fclass_us":null,"fclass_fr":null,"fclass_ru":null,"fclass_es":null,"fclass_cn":null,"fclass_tw":null,"fclass_in":null,"fclass_np":null,"fclass_pk":null,"fclass_de":null,"fclass_gb":null,"fclass_br":null,"fclass_il":null,"fclass_ps":null,"fclass_sa":null,"fclass_eg":null,"fclass_ma":null,"fclass_pt":null,"fclass_ar":null,"fclass_jp":null,"fclass_ko":null,"fclass_vn":null,"fclass_tr":null,"fclass_id":null,"fclass_pl":null,"fclass_gr":null,"fclass_it":null,"fclass_nl":null,"fclass_se":null,"fclass_bd":null,"fclass_ua":null,"filename":"TCD.geojson"}]